start=new Date('2021-12-13T00:00:00.000Z').valueOf();
sats=[{"EPOCH":"2021-12-12T19:40:15.233664","TIME_SYSTEM":"UTC","APOAPSIS":"548.167","REF_FRAME":"TEME","OBJECT_ID":"2020-057AA","EPHEMERIS_TYPE":"0","INCLINATION":"53.0550","SITE":"AFETR","ARG_OF_PERICENTER":"70.8259","PERIAPSIS":"546.275","MEAN_MOTION_DOT":"-0.00000662","COUNTRY_CODE":"US","ECCENTRICITY":"0.00013660","LAUNCH_DATE":"2020-08-18","MEAN_MOTION_DDOT":"0.0000000000000","OBJECT_NAME":"STARLINK-1596","OBJECT_TYPE":"PAYLOAD","SEMIMAJOR_AXIS":"6925.356","TLE_LINE1":"1 46141U 20057AA  21346.81962076 -.00000662  00000-0 -25575-4 0  9999","ELEMENT_SET_NO":"999","GP_ID":"191584688","TLE_LINE2":"2 46141  53.0550  25.2813 0001366  70.8259 289.2878 15.06397728 73321","CLASSIFICATION_TYPE":"U","REV_AT_EPOCH":"7332","RA_OF_ASC_NODE":"25.2813","FILE":"3238376","BSTAR":"-0.00002557500000","MEAN_ELEMENT_THEORY":"SGP4","RCS_SIZE":"LARGE","DECAY_DATE":null,"PERIOD":"95.592","NORAD_CAT_ID":"46141","CENTER_NAME":"EARTH","MEAN_ANOMALY":"289.2878","MEAN_MOTION":"15.06397728"},{"TLE_LINE2":"2 46142  53.0571  66.0971 0001150  72.4280 287.6834 15.06400670 72735","CLASSIFICATION_TYPE":"U","TLE_LINE1":"1 46142U 20057AB  21346.63901372  .00001235  00000-0  10176-3 0  9997","ELEMENT_SET_NO":"999","SEMIMAJOR_AXIS":"6925.347","GP_ID":"191585441","OBJECT_TYPE":"PAYLOAD","OBJECT_NAME":"STARLINK-1597","MEAN_MOTION_DDOT":"0.0000000000000","MEAN_ANOMALY":"287.6834","MEAN_MOTION":"15.06400670","RA_OF_ASC_NODE":"66.0971","FILE":"3238376","REV_AT_EPOCH":"7273","NORAD_CAT_ID":"46142","CENTER_NAME":"EARTH","MEAN_ELEMENT_THEORY":"SGP4","BSTAR":"0.00010176000000","PERIOD":"95.592","DECAY_DATE":null,"RCS_SIZE":"LARGE","ARG_OF_PERICENTER":"72.4280","SITE":"AFETR","EPHEMERIS_TYPE":"0","INCLINATION":"53.0571","TIME_SYSTEM":"UTC","EPOCH":"2021-12-12T15:20:10.785408","REF_FRAME":"TEME","OBJECT_ID":"2020-057AB","APOAPSIS":"548.008","ECCENTRICITY":"0.00011500","LAUNCH_DATE":"2020-08-18","PERIAPSIS":"546.415","MEAN_MOTION_DOT":"0.00001235","COUNTRY_CODE":"US"},{"ECCENTRICITY":"0.00032270","LAUNCH_DATE":"2020-08-18","PERIAPSIS":"375.995","MEAN_MOTION_DOT":"0.00092623","COUNTRY_CODE":"US","SITE":"AFETR","ARG_OF_PERICENTER":"300.0028","EPHEMERIS_TYPE":"0","INCLINATION":"53.0566","TIME_SYSTEM":"UTC","EPOCH":"2021-12-12T13:07:31.728864","REF_FRAME":"TEME","OBJECT_ID":"2020-057AC","APOAPSIS":"380.355","MEAN_ANOMALY":"60.0666","MEAN_MOTION":"15.63285893","RA_OF_ASC_NODE":"28.8965","FILE":"3238133","REV_AT_EPOCH":"7325","NORAD_CAT_ID":"46143","CENTER_NAME":"EARTH","BSTAR":"0.00098505000000","MEAN_ELEMENT_THEORY":"SGP4","RCS_SIZE":"LARGE","DECAY_DATE":null,"PERIOD":"92.114","CLASSIFICATION_TYPE":"U","TLE_LINE2":"2 46143  53.0566  28.8965 0003227 300.0028  60.0666 15.63285893 73251","ELEMENT_SET_NO":"999","TLE_LINE1":"1 46143U 20057AC  21346.54689501  .00092623  00000-0  98505-3 0  9998","SEMIMAJOR_AXIS":"6756.310","GP_ID":"191554924","OBJECT_TYPE":"PAYLOAD","OBJECT_NAME":"STARLINK-1599","MEAN_MOTION_DDOT":"0.0000000000000"},{"MEAN_ANOMALY":"292.1734","MEAN_MOTION":"15.06392974","RA_OF_ASC_NODE":"45.0584","FILE":"3238376","REV_AT_EPOCH":"6130","NORAD_CAT_ID":"46144","CENTER_NAME":"EARTH","BSTAR":"-0.00004180400000","MEAN_ELEMENT_THEORY":"SGP4","DECAY_DATE":null,"RCS_SIZE":"LARGE","PERIOD":"95.593","TLE_LINE2":"2 46144  53.0562  45.0584 0001331  67.9396 292.1734 15.06392974 61300","CLASSIFICATION_TYPE":"U","TLE_LINE1":"1 46144U 20057AD  21346.86938454 -.00000904  00000-0 -41804-4 0  9992","SEMIMAJOR_AXIS":"6925.370","ELEMENT_SET_NO":"999","GP_ID":"191585943","OBJECT_TYPE":"PAYLOAD","OBJECT_NAME":"STARLINK-1606","MEAN_MOTION_DDOT":"0.0000000000000","ECCENTRICITY":"0.00013310","LAUNCH_DATE":"2020-08-18","PERIAPSIS":"546.313","MEAN_MOTION_DOT":"-0.00000904","COUNTRY_CODE":"US","ARG_OF_PERICENTER":"67.9396","SITE":"AFETR","EPHEMERIS_TYPE":"0","INCLINATION":"53.0562","TIME_SYSTEM":"UTC","EPOCH":"2021-12-12T20:51:54.824256","REF_FRAME":"TEME","OBJECT_ID":"2020-057AD","APOAPSIS":"548.157"},{"ARG_OF_PERICENTER":"91.4778","SITE":"AFETR","INCLINATION":"53.0544","EPHEMERIS_TYPE":"0","OBJECT_ID":"2020-057AF","REF_FRAME":"TEME","APOAPSIS":"548.043","TIME_SYSTEM":"UTC","EPOCH":"2021-12-12T21:58:15.452832","LAUNCH_DATE":"2020-08-18","ECCENTRICITY":"0.00011690","COUNTRY_CODE":"US","MEAN_MOTION_DOT":"-0.00000793","PERIAPSIS":"546.423","TLE_LINE2":"2 46146  53.0544  64.8498 0001169  91.4778 268.6345 15.06393653 72785","CLASSIFICATION_TYPE":"U","GP_ID":"191584188","SEMIMAJOR_AXIS":"6925.368","TLE_LINE1":"1 46146U 20057AF  21346.91545663 -.00000793  00000-0 -34330-4 0  9998","ELEMENT_SET_NO":"999","OBJECT_TYPE":"PAYLOAD","MEAN_MOTION_DDOT":"0.0000000000000","OBJECT_NAME":"STARLINK-1608","MEAN_MOTION":"15.06393653","MEAN_ANOMALY":"268.6345","CENTER_NAME":"EARTH","NORAD_CAT_ID":"46146","RCS_SIZE":"LARGE","DECAY_DATE":null,"PERIOD":"95.593","BSTAR":"-0.00003433000000","MEAN_ELEMENT_THEORY":"SGP4","FILE":"3238376","RA_OF_ASC_NODE":"64.8498","REV_AT_EPOCH":"7278"},{"EPOCH":"2021-12-12T16:45:06.254784","TIME_SYSTEM":"UTC","APOAPSIS":"548.033","OBJECT_ID":"2020-057AG","REF_FRAME":"TEME","INCLINATION":"53.0540","EPHEMERIS_TYPE":"0","SITE":"AFETR","ARG_OF_PERICENTER":"80.1467","MEAN_MOTION_DOT":"-0.00000258","PERIAPSIS":"546.420","COUNTRY_CODE":"US","ECCENTRICITY":"0.00011650","LAUNCH_DATE":"2020-08-18","MEAN_MOTION_DDOT":"0.0000000000000","OBJECT_NAME":"STARLINK-1611","OBJECT_TYPE":"PAYLOAD","GP_ID":"191584941","TLE_LINE1":"1 46147U 20057AG  21346.69798906 -.00000258  00000-0  15727-5 0  9999","ELEMENT_SET_NO":"999","SEMIMAJOR_AXIS":"6925.362","TLE_LINE2":"2 46147  53.0540  65.8206 0001165  80.1467 279.9653 15.06395734 74002","CLASSIFICATION_TYPE":"U","REV_AT_EPOCH":"7400","FILE":"3238376","RA_OF_ASC_NODE":"65.8206","DECAY_DATE":null,"RCS_SIZE":"LARGE","PERIOD":"95.592","BSTAR":"0.00000157270000","MEAN_ELEMENT_THEORY":"SGP4","CENTER_NAME":"EARTH","NORAD_CAT_ID":"46147","MEAN_ANOMALY":"279.9653","MEAN_MOTION":"15.06395734"},{"FILE":"3238376","RA_OF_ASC_NODE":"44.8952","REV_AT_EPOCH":"7305","CENTER_NAME":"EARTH","NORAD_CAT_ID":"46148","PERIOD":"95.592","DECAY_DATE":null,"RCS_SIZE":"LARGE","MEAN_ELEMENT_THEORY":"SGP4","BSTAR":"-0.00001253500000","MEAN_ANOMALY":"291.1124","MEAN_MOTION":"15.06396583","OBJECT_TYPE":"PAYLOAD","MEAN_MOTION_DDOT":"0.0000000000000","OBJECT_NAME":"STARLINK-1616","CLASSIFICATION_TYPE":"U","TLE_LINE2":"2 46148  53.0549  44.8952 0001432  69.0018 291.1124 15.06396583 73058","GP_ID":"191585687","TLE_LINE1":"1 46148U 20057AH  21346.90255850 -.00000468  00000-0 -12535-4 0  9997","ELEMENT_SET_NO":"999","SEMIMAJOR_AXIS":"6925.359","MEAN_MOTION_DOT":"-0.00000468","PERIAPSIS":"546.232","COUNTRY_CODE":"US","ECCENTRICITY":"0.00014320","LAUNCH_DATE":"2020-08-18","TIME_SYSTEM":"UTC","EPOCH":"2021-12-12T21:39:41.054400","OBJECT_ID":"2020-057AH","REF_FRAME":"TEME","APOAPSIS":"548.216","SITE":"AFETR","ARG_OF_PERICENTER":"69.0018","INCLINATION":"53.0549","EPHEMERIS_TYPE":"0"},{"ECCENTRICITY":"0.00016550","LAUNCH_DATE":"2020-08-18","PERIAPSIS":"546.058","MEAN_MOTION_DOT":"0.00000604","COUNTRY_CODE":"US","EPHEMERIS_TYPE":"0","INCLINATION":"53.0559","ARG_OF_PERICENTER":"50.7185","SITE":"AFETR","EPOCH":"2021-12-12T14:03:12.455712","TIME_SYSTEM":"UTC","APOAPSIS":"548.350","REF_FRAME":"TEME","OBJECT_ID":"2020-057AJ","MEAN_ANOMALY":"309.3951","MEAN_MOTION":"15.06403081","REV_AT_EPOCH":"7428","RA_OF_ASC_NODE":"46.3347","FILE":"3238133","MEAN_ELEMENT_THEORY":"SGP4","BSTAR":"0.00005945600000","PERIOD":"95.592","DECAY_DATE":null,"RCS_SIZE":"LARGE","NORAD_CAT_ID":"46149","CENTER_NAME":"EARTH","TLE_LINE1":"1 46149U 20057AJ  21346.58556083  .00000604  00000-0  59456-4 0  9997","SEMIMAJOR_AXIS":"6925.339","ELEMENT_SET_NO":"999","GP_ID":"191555676","TLE_LINE2":"2 46149  53.0559  46.3347 0001655  50.7185 309.3951 15.06403081 74282","CLASSIFICATION_TYPE":"U","OBJECT_NAME":"STARLINK-1620","MEAN_MOTION_DDOT":"0.0000000000000","OBJECT_TYPE":"PAYLOAD"},{"ECCENTRICITY":"0.00012240","LAUNCH_DATE":"2020-08-18","MEAN_MOTION_DOT":"0.00001154","PERIAPSIS":"546.359","COUNTRY_CODE":"US","ARG_OF_PERICENTER":"81.3760","SITE":"AFETR","INCLINATION":"53.0556","EPHEMERIS_TYPE":"0","TIME_SYSTEM":"UTC","EPOCH":"2021-12-12T21:52:56.688672","OBJECT_ID":"2020-057AK","REF_FRAME":"TEME","APOAPSIS":"548.054","MEAN_ANOMALY":"278.7368","MEAN_MOTION":"15.06402202","FILE":"3238376","RA_OF_ASC_NODE":"64.8574","REV_AT_EPOCH":"7278","CENTER_NAME":"EARTH","NORAD_CAT_ID":"46150","RCS_SIZE":"LARGE","DECAY_DATE":null,"PERIOD":"95.592","BSTAR":"0.00009631100000","MEAN_ELEMENT_THEORY":"SGP4","CLASSIFICATION_TYPE":"U","TLE_LINE2":"2 46150  53.0556  64.8574 0001224  81.3760 278.7368 15.06402202 72787","GP_ID":"191584689","TLE_LINE1":"1 46150U 20057AK  21346.91176723  .00001154  00000-0  96311-4 0  9997","ELEMENT_SET_NO":"999","SEMIMAJOR_AXIS":"6925.342","OBJECT_TYPE":"PAYLOAD","OBJECT_NAME":"STARLINK-1629","MEAN_MOTION_DDOT":"0.0000000000000"},{"FILE":"3238376","RA_OF_ASC_NODE":"44.9751","REV_AT_EPOCH":"7305","CENTER_NAME":"EARTH","NORAD_CAT_ID":"46151","RCS_SIZE":"LARGE","DECAY_DATE":null,"PERIOD":"95.592","MEAN_ELEMENT_THEORY":"SGP4","BSTAR":"0.00007886900000","MEAN_ANOMALY":"292.3413","MEAN_MOTION":"15.06405244","OBJECT_TYPE":"PAYLOAD","OBJECT_NAME":"STARLINK-1631","MEAN_MOTION_DDOT":"0.0000000000000","TLE_LINE2":"2 46151  53.0551  44.9751 0001366  67.7721 292.3413 15.06405244 73054","CLASSIFICATION_TYPE":"U","GP_ID":"191585442","SEMIMAJOR_AXIS":"6925.332","TLE_LINE1":"1 46151U 20057AL  21346.88780291  .00000894  00000-0  78869-4 0  9993","ELEMENT_SET_NO":"999","MEAN_MOTION_DOT":"0.00000894","PERIAPSIS":"546.251","COUNTRY_CODE":"US","ECCENTRICITY":"0.00013660","LAUNCH_DATE":"2020-08-18","TIME_SYSTEM":"UTC","EPOCH":"2021-12-12T21:18:26.171424","OBJECT_ID":"2020-057AL","REF_FRAME":"TEME","APOAPSIS":"548.143","SITE":"AFETR","ARG_OF_PERICENTER":"67.7721","INCLINATION":"53.0551","EPHEMERIS_TYPE":"0"}];
